0 COSMOS 1932
1 18957U 88019A   13283.17992696 -.00000044  00000-0  41969-4 0  9668
2 18957 065.0432 144.6731 0048920 338.0106 150.9149 13.79616131289985
0 COSMOS 1932
1 18957U 88019A   13283.66137735  .00000021  00000-0  20039-4 0  9677
2 18957 065.0448 143.4425 0047623 337.6498 022.2936 13.79616573290052
0 COSMOS 1932
1 18957U 88019A   13285.86107326 -.00000044  00000-0  41292-4 0  9685
2 18957 065.0429 137.7924 0049137 337.2199 147.0287 13.79616232290357
0 COSMOS 1932
1 18957U 88019A   13287.16862846 -.00000055  00000-0  31268-4 0  9690
2 18957 065.0428 134.4367 0049246 336.8467 161.0865 13.79616533290537
0 COSMOS 1932
1 18957U 88019A   13288.83277889 -.00000068  00000-0  18521-4 0  9705
2 18957 065.0428 130.1658 0049383 336.3431 146.2286 13.79616930290769
0 COSMOS 1932
1 18957U 88019A   13289.83996980 -.00000082  00000-0  52547-5 0  9710
2 18957 065.0429 127.5810 0049467 336.0534 108.5121 13.79617006290904
0 COSMOS 1932
1 18957U 88019A   13290.54781432  .00000044  00000-0  41984-4 0  9735
2 18957 065.0433 125.7680 0049050 335.5804 024.3402 13.79616845291005
0 COSMOS 1932
1 18957U 88019A   13291.08270907 -.00000084  00000-0  28807-5 0  9729
2 18957 065.0430 124.3916 0049569 335.6918 160.6677 13.79617214291077
0 COSMOS 1932
1 18957U 88019A   13292.50945262 -.00000069  00000-0  18103-4 0  9731
2 18957 065.0432 120.7299 0049674 335.2676 046.7050 13.79617156291273
0 COSMOS 1932
1 18957U 88019A   13293.52609038 -.00000076  00000-0  11367-4 0  9746
2 18957 065.0434 118.1208 0049754 334.9657 055.9175 13.79617116291412
0 COSMOS 1932
1 18957U 88019A   13294.54891089 -.00000062  00000-0  24252-4 0  9751
2 18957 065.0435 115.4958 0049829 334.6506 095.8493 13.79617068291555
0 COSMOS 1932
1 18957U 88019A   13296.08480662 -.00000045  00000-0  41065-4 0  9766
2 18957 065.0435 111.5541 0049972 334.2091 163.9841 13.79616969291760
